$$SOE
2460154.500000000, A.D. 2023-Jul-29 00:00:00.0000, 4.009227450398232E+07, 4.777828135291622E+08, 5.383044343400678E+07,
2460161.500000000, A.D. 2023-Aug-05 00:00:00.0000, 3.009808657253369E+07, 4.780445420655429E+08, 5.490807125288391E+07,
2460168.500000000, A.D. 2023-Aug-12 00:00:00.0000, 2.009090333750523E+07, 4.780991595924703E+08, 5.596190344128475E+07,
2460175.500000000, A.D. 2023-Aug-19 00:00:00.0000, 1.007503695421902E+07, 4.779461958339635E+08, 5.699143158400875E+07,
2460182.500000000, A.D. 2023-Aug-26 00:00:00.0000, 5.482234650615355E+04, 4.775852701409029E+08, 5.799615583702341E+07,
2460189.500000000, A.D. 2023-Sep-02 00:00:00.0000, -9.965384673185371E+06, 4.770160924553646E+08, 5.897558523755977E+07,
2460196.500000000, A.D. 2023-Sep-09 00:00:00.0000, -1.998120931216643E+07, 4.762384641257497E+08, 5.992923800276595E+07,
2460203.500000000, A.D. 2023-Sep-16 00:00:00.0000, -2.998825956561389E+07, 4.752522785128673E+08, 6.085664179652327E+07,
2460210.500000000, A.D. 2023-Sep-23 00:00:00.0000, -3.998212742782231E+07, 4.740575216721623E+08, 6.175733394953215E+07,
2460217.500000000, A.D. 2023-Sep-30 00:00:00.0000, -4.995838988580476E+07, 4.726542743020685E+08, 6.263086176113436E+07,
2460224.500000000, A.D. 2023-Oct-07 00:00:00.0000, -5.991261204732434E+07, 4.710427144145709E+08, 6.347678305428314E+07,
2460231.500000000, A.D. 2023-Oct-14 00:00:00.0000, -6.984035136218104E+07, 4.692231174109136E+08, 6.429466661705559E+07,
2460238.500000000, A.D. 2023-Oct-21 00:00:00.0000, -7.973715970906529E+07, 4.671958551633160E+08, 6.508409236564526E+07,
2460245.500000000, A.D. 2023-Oct-28 00:00:00.0000, -8.959858477128410E+07, 4.649613963636285E+08, 6.584465154453570E+07,
2460252.500000000, A.D. 2023-Nov-04 00:00:00.0000, -9.942017194875458E+07, 4.625203073669819E+08, 6.657594701537636E+07,
2460259.500000000, A.D. 2023-Nov-11 00:00:00.0000, -1.091974666265534E+08, 4.598732529274976E+08, 6.727759356882876E+07,
2460266.500000000, A.D. 2023-Nov-18 00:00:00.0000, -1.189260165788706E+08, 4.570209967584121E+08, 6.794921823348632E+07,
2460273.500000000, A.D. 2023-Nov-25 00:00:00.0000, -1.286013744345248E+08, 4.539644019358531E+08, 6.859046057653901E+07,
2460280.500000000, A.D. 2023-Dec-02 00:00:00.0000, -1.382191001755572E+08, 4.507044311324357E+08, 6.920097299240002E+07,
2460287.500000000, A.D. 2023-Dec-09 00:00:00.0000, -1.477747635909697E+08, 4.472421466203855E+08, 6.978042096735641E+07,
2460294.500000000, A.D. 2023-Dec-16 00:00:00.0000, -1.572639463974320E+08, 4.435787100563800E+08, 7.032848329505402E+07,
2460301.500000000, A.D. 2023-Dec-23 00:00:00.0000, -1.666822436771964E+08, 4.397153827356395E+08, 7.084485226712021E+07,
2460308.500000000, A.D. 2023-Dec-30 00:00:00.0000, -1.760252659714202E+08, 4.356535273651067E+08, 7.132923404753304E+07,
2460315.500000000, A.D. 2024-Jan-06 00:00:00.0000, -1.852886437973816E+08, 4.313946089944849E+08, 7.178134919974834E+07,
2460322.500000000, A.D. 2024-Jan-13 00:00:00.0000, -1.944680314128934E+08, 4.269401932939190E+08, 7.220093292654282E+07,
2460329.500000000, A.D. 2024-Jan-20 00:00:00.0000, -2.035591086034592E+08, 4.222919452598734E+08, 7.258773516151601E+07,
2460336.500000000, A.D. 2024-Jan-27 00:00:00.0000, -2.125575825193965E+08, 4.174516290010551E+08, 7.294152075104046E+07,
2460343.500000000, A.D. 2024-Feb-03 00:00:00.0000, -2.214591899886177E+08, 4.124211076541362E+08, 7.326206968755588E+07,
2460350.500000000, A.D. 2024-Feb-10 00:00:00.0000, -2.302597000256067E+08, 4.072023431360601E+08, 7.354917734420374E+07,
2460357.500000000, A.D. 2024-Feb-17 00:00:00.0000, -2.389549163961472E+08, 4.017973957394554E+08, 7.380265469822502E+07,
2460364.500000000, A.D. 2024-Feb-24 00:00:00.0000, -2.475406801999571E+08, 3.962084235851673E+08, 7.402232854070516E+07,
2460371.500000000, A.D. 2024-Mar-02 00:00:00.0000, -2.560128724396165E+08, 3.904376818988945E+08, 7.420804166704640E+07,
2460378.500000000, A.D. 2024-Mar-09 00:00:00.0000, -2.643674164343671E+08, 3.844875220485926E+08, 7.435965302999912E+07,
2460385.500000000, A.D. 2024-Mar-16 00:00:00.0000, -2.726002796806864E+08, 3.783603905392445E+08, 7.447703783475690E+07,
2460392.500000000, A.D. 2024-Mar-23 00:00:00.0000, -2.807074752607712E+08, 3.720588290734735E+08, 7.456008767592339E+07,
2460399.500000000, A.D. 2024-Mar-30 00:00:00.0000, -2.886850650379562E+08, 3.655854756517696E+08, 7.460871091959037E+07,
2460406.500000000, A.D. 2024-Apr-06 00:00:00.0000, -2.965291643790206E+08, 3.589430633452020E+08, 7.462283303142737E+07,
2460413.500000000, A.D. 2024-Apr-13 00:00:00.0000, -3.042359448475868E+08, 3.521344175745307E+08, 7.460239659251380E+07,
2460420.500000000, A.D. 2024-Apr-20 00:00:00.0000, -3.118016358192137E+08, 3.451624545710219E+08, 7.454736130867301E+07,
2460427.500000000, A.D. 2024-Apr-27 00:00:00.0000, -3.192225265333687E+08, 3.380301804588904E+08, 7.445770410661408E+07,
2460434.500000000, A.D. 2024-May-04 00:00:00.0000, -3.264949684909505E+08, 3.307406902566607E+08, 7.433341925109366E+07,
2460441.500000000, A.D. 2024-May-11 00:00:00.0000, -3.336153779556219E+08, 3.232971666956926E+08, 7.417451845261945E+07,
2460448.500000000, A.D. 2024-May-18 00:00:00.0000, -3.405802384739077E+08, 3.157028788777667E+08, 7.398103095975325E+07,
2460455.500000000, A.D. 2024-May-25 00:00:00.0000, -3.473861033863994E+08, 3.079611807652192E+08, 7.375300363307777E+07,
2460462.500000000, A.D. 2024-Jun-01 00:00:00.0000, -3.540295982672859E+08, 3.000755094470211E+08, 7.349050099062751E+07,
2460469.500000000, A.D. 2024-Jun-08 00:00:00.0000, -3.605074230428969E+08, 2.920493831587638E+08, 7.319360520034344E+07,
2460476.500000000, A.D. 2024-Jun-15 00:00:00.0000, -3.668163533868847E+08, 2.838863996025304E+08, 7.286241602752735E+07,
2460483.500000000, A.D. 2024-Jun-22 00:00:00.0000, -3.729532423951142E+08, 2.755902357429383E+08, 7.249705092575203E+07,
2460490.500000000, A.D. 2024-Jun-29 00:00:00.0000, -3.789150246604310E+08, 2.671646472611854E+08, 7.209764531751035E+07,
2460497.500000000, A.D. 2024-Jul-06 00:00:00.0000, -3.846987200984958E+08, 2.586134651990887E+08, 7.166435262020259E+07,
2460504.500000000, A.D. 2024-Jul-13 00:00:00.0000, -3.903014355699713E+08, 2.499405926177115E+08, 7.119734406895784E+07,
2460511.500000000, A.D. 2024-Jul-20 00:00:00.0000, -3.957203662816787E+08, 2.411500024198250E+08, 7.069680861200474E+07,
2460518.500000000, A.D. 2024-Jul-27 00:00:00.0000, -4.009527976197029E+08, 2.322457353788363E+08, 7.016295286012512E+07,
2460525.500000000, A.D. 2024-Aug-03 00:00:00.0000, -4.059961071374049E+08, 2.232318980004790E+08, 6.959600103399526E+07,
2460532.500000000, A.D. 2024-Aug-10 00:00:00.0000, -4.108477665293585E+08, 2.141126602132894E+08, 6.899619489341654E+07,
2460539.500000000, A.D. 2024-Aug-17 00:00:00.0000, -4.155053435422406E+08, 2.048922529107939E+08, 6.836379364582106E+07,
2460546.500000000, A.D. 2024-Aug-24 00:00:00.0000, -4.199665037939485E+08, 1.955749653257679E+08, 6.769907382988551E+07,
2460553.500000000, A.D. 2024-Aug-31 00:00:00.0000, -4.242290123840941E+08, 1.861651421787498E+08, 6.700232915880933E+07,
2460560.500000000, A.D. 2024-Sep-07 00:00:00.0000, -4.282907349282564E+08, 1.766671807310242E+08, 6.627387030002429E+07,
2460567.500000000, A.D. 2024-Sep-14 00:00:00.0000, -4.321496379279886E+08, 1.670855287412245E+08, 6.551402466466185E+07,
2460574.500000000, A.D. 2024-Sep-21 00:00:00.0000, -4.358037905032763E+08, 1.574246837408541E+08, 6.472313642637527E+07,
2460581.500000000, A.D. 2024-Sep-28 00:00:00.0000, -4.392513679738851E+08, 1.476891904046360E+08, 6.390156655053279E+07,
2460588.500000000, A.D. 2024-Oct-05 00:00:00.0000, -4.424906536168174E+08, 1.378836360214239E+08, 6.304969249723317E+07,
2460595.500000000, A.D. 2024-Oct-12 00:00:00.0000, -4.455200389561611E+08, 1.280126470477472E+08, 6.216790787435643E+07,
2460602.500000000, A.D. 2024-Oct-19 00:00:00.0000, -4.483380243347543E+08, 1.180808864748091E+08, 6.125662217912763E+07,
2460609.500000000, A.D. 2024-Oct-26 00:00:00.0000, -4.509432197996740E+08, 1.080930512109366E+08, 6.031626056604297E+07,
2460616.500000000, A.D. 2024-Nov-02 00:00:00.0000, -4.533343460428622E+08, 9.805386933502410E+07, 5.934726360574742E+07,
2460623.500000000, A.D. 2024-Nov-09 00:00:00.0000, -4.555102352985107E+08, 8.796809724530877E+07, 5.835008702794939E+07,
2460630.500000000, A.D. 2024-Nov-16 00:00:00.0000, -4.574698321697026E+08, 7.784051670724276E+07, 5.732520144630401E+07,
2460637.500000000, A.D. 2024-Nov-23 00:00:00.0000, -4.592121943360403E+08, 6.767593175411142E+07, 5.627309205722281E+07,
2460644.500000000, A.D. 2024-Nov-30 00:00:00.0000, -4.607364929327971E+08, 5.747916540138027E+07, 5.519425829040520E+07,
2460651.500000000, A.D. 2024-Dec-07 00:00:00.0000, -4.620420121809454E+08, 4.725505659901308E+07, 5.408921340739536E+07,
2460658.500000000, A.D. 2024-Dec-14 00:00:00.0000, -4.631281489555557E+08, 3.700845864905244E+07, 5.295848421175879E+07,
2460665.500000000, A.D. 2024-Dec-21 00:00:00.0000, -4.639944146111467E+08, 2.674423785066986E+07, 5.180261098269122E+07,
2460672.500000000, A.D. 2024-Dec-28 00:00:00.0000, -4.646404370928209E+08, 1.646726940927639E+07, 5.062214720944933E+07,
2460679.500000000, A.D. 2025-Jan-04 00:00:00.0000, -4.650659607352986E+08, 6.182432990723386E+06, 4.941765908324100E+07,
2460686.500000000, A.D. 2025-Jan-11 00:00:00.0000, -4.652708455689472E+08, -4.105390416216340E+06, 4.818972504966991E+07,
2460693.500000000, A.D. 2025-Jan-18 00:00:00.0000, -4.652550670496204E+08, -1.439132124558251E+07, 4.693893543134777E+07,
2460700.500000000, A.D. 2025-Jan-25 00:00:00.0000, -4.650187159701462E+08, -2.467048417961776E+07, 4.566589206040332E+07,
2460707.500000000, A.D. 2025-Feb-01 00:00:00.0000, -4.645619983649459E+08, -3.493801108024918E+07, 4.437120790189376E+07,
2460714.500000000, A.D. 2025-Feb-08 00:00:00.0000, -4.638852353499836E+08, -4.518904400345363E+07, 4.305550666513684E+07,
2460721.500000000, A.D. 2025-Feb-15 00:00:00.0000, -4.629888628699978E+08, -5.541873831325735E+07, 4.171942239940703E+07,
$$EOE